{"fetched_at":"2026-03-30T06:02:59Z","count":15439,"tles":[{"name":"STARLINK-31315","line1":"1 58884U 24020J   26087.82017694  .00002103  00000+0  83102-4 0  9994","line2":"2 58884  53.1593 207.6067 0001107  83.0041 277.1086 15.30202074121362","category":"Starlink"}]}